{"type":"FeatureCollection","features":[{"type":"Feature","properties":{"note":"simplified to 10 m for display only"},"geometry":{"type":"MultiPolygon","coordinates":[[[[35.14511196475892,32.663270277430314],[35.14384165769483,32.66406915154193],[35.143656122746656,32.663869998509895],[35.14210710464251,32.664836931828994],[35.140055164876465,32.66564752932782],[35.13903476211736,32.6668065159486],[35.13875738978528,32.66737003248318],[35.13907122940857,32.66811356909029],[35.13895512157024,32.66857022656138],[35.138078615635415,32.66969862154283],[35.13775417370355,32.66974155154177],[35.136887474030864,32.66927787799199],[35.13562847601152,32.66922047650223],[35.13509228904873,32.66984407703542],[35.13495816787902,32.67095599577586],[35.134740442397735,32.67099158293591],[35.13364838473547,32.67213677882826],[35.13267204794637,32.67278942541057],[35.13120262061087,32.674346015229595],[35.130801041317376,32.67456192084954],[35.12982925875148,32.674552690603974],[35.12922693966068,32.675508687590735],[35.12817075556156,32.676698130446745],[35.127782118717974,32.67684424163549],[35.12695280780185,32.67677060358464],[35.125883666691735,32.677119803448754],[35.12424650060176,32.67860239132915],[35.12235788282854,32.67927597572933],[35.12254154217279,32.67944426497233],[35.12197579695648,32.67969655424363],[35.12062771831781,32.680781646063146],[35.12003401429435,32.681045721164196],[35.119796631605325,32.68131634531704],[35.11973874105631,32.6819886224228],[35.11913535544346,32.68291268354861],[35.11860619998728,32.683113765113546],[35.1179986257904,32.683010608048804],[35.117615764571035,32.68309285037308],[35.11552842525817,32.68411997109815],[35.11497771364483,32.68421660388048],[35.11438076460381,32.68395513156585],[35.114436541306056,32.683624604241814],[35.11308232574892,32.68328043450627],[35.11268628074173,32.683424599745194],[35.112442200078874,32.68375255378776],[35.111205060356525,32.684336130024576],[35.109871273422876,32.68433846842868],[35.10869530313575,32.68455112363837],[35.10793019323976,32.68507915757854],[35.10955407856191,32.68524383002785],[35.11023494310702,32.685777593148394],[35.111473652538926,32.68752604134896],[35.110092280320465,32.68866453816148],[35.11093951567029,32.68912729885613],[35.11135907822321,32.68909548641377],[35.11163987070721,32.69162442894466],[35.1113790135477,32.69268656194765],[35.11010617794166,32.69449554685842],[35.10959051878424,32.69687621214734],[35.11179679441639,32.697987070120504],[35.11278179806328,32.70037550087705],[35.11216325903034,32.701162184251125],[35.11088901333665,32.7016733859154],[35.11048553924586,32.70228033465736],[35.11054885142227,32.702412848441824],[35.11126495959048,32.70289926788981],[35.11276778112374,32.703455410706916],[35.11329232716985,32.70435618108264],[35.11399920185072,32.704991960480065],[35.114713660933624,32.704812219287156],[35.11486240083794,32.70404444073587],[35.116867841760175,32.70412875414374],[35.119748675534495,32.703797061803826],[35.12009791518307,32.70304058331415],[35.12131606561476,32.70158664806668],[35.122300262729006,32.70135116032361],[35.122933278274374,32.70138426005477],[35.12512577582548,32.7020433480009],[35.126312211163594,32.702636404023636],[35.12796576384308,32.70320380661787],[35.13078074547093,32.70339824531112],[35.13316096979181,32.701456477372524],[35.13413947995402,32.70271404928768],[35.1337860716756,32.70292890290195],[35.13439239373137,32.70399991356723],[35.135536358620584,32.70511645081484],[35.13593854260088,32.70752832020781],[35.133444858256674,32.70771924307117],[35.13274891544661,32.70949773565292],[35.131547679560946,32.71084531458291],[35.131585051371204,32.711718221544054],[35.13131038415208,32.71216426891443],[35.131229268781965,32.71272215297433],[35.131566860138726,32.71360884127082],[35.13139638622956,32.71502685581846],[35.13172656803999,32.71613488461566],[35.131705528135676,32.71827191701142],[35.13405498316898,32.719476787221815],[35.13487614442031,32.71887686755169],[35.13676740204806,32.71983367103484],[35.13543200172208,32.720658675570945],[35.1358018946783,32.721064969052414],[35.13642196351084,32.72126741698793],[35.1371668568827,32.721244554647015],[35.13827135639633,32.7220151593347],[35.139914736981765,32.72246108120371],[35.14057613438342,32.72278038187852],[35.14160323991711,32.72378839807312],[35.14288864264065,32.72419528442336],[35.14410419654672,32.72422463575766],[35.14441846895829,32.726676905167885],[35.14480305965316,32.726983265333764],[35.14556608401559,32.7283332980773],[35.145978972374245,32.7284307851591],[35.147003793449734,32.727825943933496],[35.14853559408154,32.72831554046233],[35.14887718274613,32.72882434405742],[35.15022469560851,32.72891636656138],[35.150516223605756,32.72913668858102],[35.150573293401266,32.732238103238416],[35.15257285649903,32.73294396797855],[35.152975251900045,32.733611064060604],[35.15439455994317,32.733406834215046],[35.15441258003522,32.73355393193302],[35.15523661825936,32.73386083464077],[35.15562869528752,32.73537246774848],[35.15682944923357,32.73646109307485],[35.15911889216452,32.73697483394488],[35.16094135932508,32.737092170444065],[35.161648104761426,32.7379895358139],[35.16094281124688,32.739386918623026],[35.160785235473426,32.74169017419203],[35.1622829348959,32.74390612500854],[35.16294411358826,32.74428111394997],[35.164221574986314,32.7444466543841],[35.16422680741162,32.74467490049856],[35.16322961835322,32.74481997642973],[35.16254787267073,32.74526665613238],[35.16228199296405,32.74555173234114],[35.162392531949195,32.74589497912545],[35.161901553871026,32.74623464185191],[35.159888525045865,32.74671128267479],[35.159067154827525,32.747263280996],[35.15831105449457,32.747956188895266],[35.15830998057136,32.748748559377674],[35.15653481279073,32.74917507528493],[35.15624309027821,32.74777957928291],[35.15583798156997,32.74872590376021],[35.155730531587785,32.74988805873096],[35.1559568511324,32.751129329251455],[35.15635708470764,32.75177264110364],[35.156283386344555,32.75227972176726],[35.15559548201083,32.752299489729296],[35.155595627228536,32.752033256042886],[35.15536661149959,32.751851913763],[35.15498007474706,32.751682440350635],[35.15430374731278,32.75169404719468],[35.15396353259884,32.75141596294219],[35.15371989327965,32.750733834483576],[35.15466143607663,32.75011427993329],[35.15322535291655,32.74853355890142],[35.150882941790776,32.750418052979704],[35.15193895821037,32.7516562972322],[35.151455610419085,32.75250538332787],[35.15257433907827,32.75272465614244],[35.15316434997303,32.75438332441229],[35.15476521163771,32.7572942093472],[35.154876269743994,32.75877867834112],[35.15480968276548,32.760086117963965],[35.154514929474466,32.76045141509395],[35.154444708529105,32.764091882854466],[35.154188705758656,32.76458310058464],[35.15367248492406,32.76479760900752],[35.153310331980414,32.765320447750284],[35.153358856740994,32.766782348168704],[35.15310230011301,32.769255154021565],[35.15361466053827,32.76971804809226],[35.156086602088685,32.77028540654314],[35.156992961200736,32.77059683721828],[35.15813879248895,32.77124479913935],[35.159862866871414,32.77179827726796],[35.16089304466213,32.7726913211802],[35.16096163978217,32.772926351130444],[35.16076031676387,32.77333655406939],[35.159720179135505,32.773671507457074],[35.15986831895984,32.7745788944012],[35.1597494516536,32.775833902666136],[35.16034977817503,32.77696292782793],[35.16103725014906,32.777605064979106],[35.16065774914622,32.778118338237576],[35.16129629593024,32.77889965546953],[35.15695153949616,32.781088083173756],[35.15145093900811,32.782362343026406],[35.15006559349047,32.7824028887242],[35.148967084586054,32.78220516105271],[35.14900745939039,32.783933472798104],[35.14856823635807,32.78473424442176],[35.1506302555788,32.78812439212491],[35.15108716406551,32.789565326996055],[35.15187902347105,32.79004853077653],[35.15218566330273,32.78915693727302],[35.152791904234824,32.78812136479106],[35.15320538475307,32.787818526596226],[35.153311221083975,32.78788062818124],[35.15397789937574,32.78976744386522],[35.15515886185365,32.791489401472795],[35.15709931249125,32.79257159674602],[35.15806133285803,32.793757356427385],[35.157879632890385,32.79398390322175],[35.158282405861485,32.7948663307367],[35.1591412973117,32.79580645430994],[35.15932741412294,32.795713738786255],[35.16003979962158,32.7963385922028],[35.161876964836466,32.795493890132065],[35.16182982980545,32.79499230597195],[35.16233036617337,32.79475916141174],[35.16559671330518,32.79422427271341],[35.165735764121294,32.79438492756905],[35.166533899421125,32.79408648568554],[35.16708351996768,32.79171969895578],[35.167752419223646,32.7916725574721],[35.16818373371533,32.791349199488685],[35.1692645450369,32.79110492235355],[35.17076758090905,32.79101640891629],[35.17110615219247,32.79047379098261],[35.17159322952232,32.7908783032625],[35.171466066607564,32.79104288534127],[35.1717395058674,32.79175660617648],[35.172029391200375,32.79173572784347],[35.17397603801845,32.790926250286056],[35.1741140522269,32.790694411658315],[35.17493801902336,32.79047801810562],[35.17498275264329,32.7900467238329],[35.175769437662474,32.78988112751316],[35.177095792637346,32.79144501108955],[35.177361384439536,32.79002232639349],[35.17780971059219,32.78905427095626],[35.17761806178082,32.78751654704647],[35.17769225864116,32.78649200630807],[35.17892094254458,32.784432450942376],[35.17966972337237,32.78169430126122],[35.180986029391086,32.78036732478663],[35.18209599267723,32.77891579385412],[35.18275667206812,32.776576003116794],[35.18551664690578,32.77569785649653],[35.18762724708093,32.77614449773468],[35.18821847843083,32.77604144469173],[35.18790512511392,32.775057988004455],[35.187940436976135,32.77439186281873],[35.18980145797963,32.77422246249047],[35.191228581103836,32.77377966128723],[35.19194827384241,32.77317221539128],[35.193519805922584,32.77259752882748],[35.193061180681106,32.77122966213083],[35.1936902366226,32.77124217811316],[35.19631435757579,32.77041619149574],[35.19620620699633,32.76955957013987],[35.1976472066939,32.769408058905476],[35.1979334828878,32.770125487649736],[35.200126767404065,32.76971305440266],[35.200351148861145,32.771517024733186],[35.20111390622899,32.77222488085249],[35.201181769449825,32.7726213398054],[35.20066093268643,32.77392646310192],[35.200097308888026,32.77459383904229],[35.19827045531952,32.77583833132963],[35.19977843365713,32.77604042980814],[35.201040769717736,32.77685088053739],[35.20148685564437,32.77734181234509],[35.20151972877192,32.77779408688945],[35.20390615735067,32.781030583612775],[35.202831258395385,32.78253100306959],[35.20253479473713,32.783236419423694],[35.20305807483375,32.78321492519258],[35.20363838180181,32.78550522301506],[35.204068963474114,32.78546534827908],[35.2042864961128,32.78678780630516],[35.20515480581345,32.789006644413895],[35.20499230289817,32.79138892529861],[35.204286450009306,32.79153872447386],[35.20422997877955,32.791842564452175],[35.204825896307035,32.79250691734497],[35.205848740431406,32.79247253261694],[35.20588643014473,32.79201379429676],[35.20671510961113,32.79196869698644],[35.20852357178685,32.791472717772535],[35.20869338011421,32.79155104693779],[35.2088972403583,32.792082476965824],[35.210397947911304,32.79169524844335],[35.211547856160095,32.79163359693932],[35.21516490897424,32.7922038255108],[35.21489461219671,32.7915799865169],[35.213760438177864,32.790784329390966],[35.21371480007953,32.78982910091545],[35.213495579145004,32.78936868554766],[35.2134454593208,32.78858590475735],[35.21456079889559,32.78826740862227],[35.214426227815025,32.7871047933255],[35.21402795394233,32.785819341976094],[35.21530202501817,32.78538417066099],[35.21578659425105,32.78440465727404],[35.21513429961995,32.7817711948537],[35.213526337779356,32.77694836805274],[35.21361483074799,32.77600477663724],[35.212945214117866,32.77641473703431],[35.2110748848868,32.77686903774159],[35.21201285642846,32.77577645862978],[35.212801337625635,32.77452730424527],[35.2127137741856,32.77381067693408],[35.21289309032605,32.773428330218344],[35.21126910295336,32.77178617353595],[35.21180323252631,32.771417218399094],[35.21271014806682,32.772345834042355],[35.21325423468472,32.77198328046759],[35.21361914061829,32.771412572462495],[35.21285469600245,32.77078810318935],[35.213246935859786,32.77044345572339],[35.21389918135963,32.770940056721734],[35.214569101270165,32.770357817603916],[35.21539467948197,32.770316499714184],[35.21557137550213,32.77018515160341],[35.21514796570899,32.767895991984325],[35.21267018242198,32.76932688205382],[35.21238392769477,32.768998307808445],[35.21160709995289,32.76866386942374],[35.21195144963965,32.768321394520534],[35.21280877370661,32.7688218553419],[35.21343091270099,32.76839294217943],[35.21319740380417,32.76775647520096],[35.211711187687904,32.76698478332879],[35.2113742698313,32.76767791019038],[35.210548881011874,32.767507430223624],[35.20979365285271,32.76795383781655],[35.2095128190047,32.767648947060074],[35.20987868115135,32.767430108961015],[35.21008208738352,32.767650938784755],[35.21069728320232,32.76742992268182],[35.2111334685536,32.76608500583583],[35.21156567522004,32.76626359060357],[35.2114724205255,32.766511841064855],[35.213534298855336,32.76758219135789],[35.21399653135355,32.76797444847287],[35.21560309026801,32.767161350983976],[35.215983525524805,32.76647840059815],[35.21668245448255,32.76662426879162],[35.216054280429745,32.76774231823318],[35.2163355544213,32.770394326820764],[35.216461051864414,32.770447029953054],[35.2168533954076,32.77045964424624],[35.21777525426711,32.76993177481189],[35.2187958723316,32.769565191347446],[35.225679530218855,32.76793321795138],[35.22692959096936,32.767470717972685],[35.22814047833135,32.76770798774314],[35.22828038078086,32.768153706426524],[35.22760443117802,32.76857633910388],[35.226201988403446,32.76901123795014],[35.22625102458269,32.76927993402621],[35.227361584981274,32.76956211529088],[35.22781649787842,32.769996844960446],[35.22858854137879,32.769896035354336],[35.22958461431364,32.77006781937773],[35.231190130601334,32.77123891273516],[35.23074822714628,32.771668525337994],[35.23072672713505,32.771997511125036],[35.231090748792134,32.77291465127125],[35.231072653799146,32.77393932755798],[35.2305821572864,32.775132751531956],[35.230174616081655,32.775617300564036],[35.230545885185784,32.77915810047634],[35.230355993750756,32.78227097356795],[35.231318578364125,32.78236393027771],[35.23238166167511,32.782846938708325],[35.23294660463191,32.7822494782138],[35.232788757836666,32.78224951407155],[35.23278996982631,32.78186430862117],[35.23323651294181,32.7818638243428],[35.233236637283106,32.78224941180917],[35.23247038625406,32.78291665794518],[35.23303305583617,32.783650542929664],[35.23339978961139,32.78584808743877],[35.23387731114669,32.786326080071824],[35.23411170236202,32.7869051350057],[35.23404153895508,32.78798719941865],[35.23351055343785,32.788998597354876],[35.23499143744052,32.78902773183548],[35.23499189205451,32.78987269973268],[35.23396688568094,32.789881514617896],[35.23410972463863,32.79021793800437],[35.234624685409756,32.78998719337918],[35.23532436141961,32.79115489966102],[35.23522028348162,32.791248194053544],[35.23687572109628,32.791223045085324],[35.236683334116954,32.792735659296355],[35.23699382785155,32.792965363493344],[35.2408441985827,32.791744194345455],[35.243256100455774,32.79195987659069],[35.2436440630732,32.792291693414],[35.24432908033611,32.79255522303626],[35.2446877764953,32.7934444057698],[35.245252601316835,32.79384829438408],[35.24591135141429,32.793911196541146],[35.24798193502805,32.793146702892926],[35.25020764900659,32.795560366693344],[35.250883295975036,32.795046714019854],[35.251102555900374,32.79530493578189],[35.25548035254174,32.79497053400415],[35.25545717544377,32.79469778054357],[35.26498612281797,32.794060620649944],[35.2651417968902,32.79290031536715],[35.267745709716046,32.79288467070096],[35.267437471409295,32.79200181349236],[35.26879999118233,32.79233310683375],[35.26941394014094,32.79290908152146],[35.271221777978845,32.79409324684807],[35.27116630438766,32.79428960260117],[35.27199546636026,32.794559621484716],[35.27171949273731,32.79599730700361],[35.273294643313896,32.79701561411585],[35.27465369663664,32.79747472373795],[35.2770470804699,32.79891396222104],[35.28023054054717,32.797484001636356],[35.282319821324215,32.79693537243999],[35.28538352881414,32.79541786439875],[35.291243887110134,32.79064761270934],[35.29455689043471,32.78956029023132],[35.29538735300221,32.78957176891033],[35.29658713092374,32.78914149325545],[35.29789387222969,32.78894940400545],[35.298099364810255,32.78710301126494],[35.29792441220705,32.786842400268114],[35.297239545902954,32.78655126049563],[35.296853148331365,32.7861544211007],[35.29656893047302,32.78392857594648],[35.29691085898008,32.783274436808334],[35.29654534784127,32.78309226584092],[35.29669707203421,32.782886379698986],[35.29716441303442,32.78308314187414],[35.29918668129563,32.78119813724176],[35.29771829904404,32.78054066966267],[35.29934858785616,32.77857396441082],[35.30008784518512,32.77825583493496],[35.3008795429023,32.778441390467705],[35.30151486051,32.77800287478402],[35.301488639154016,32.77775103292427],[35.301851660403514,32.77748793868447],[35.302097671746345,32.777016873337],[35.302251938509094,32.77570268524692],[35.301848011006825,32.77538702885584],[35.301754494383985,32.77291227733146],[35.30192737180625,32.772732359569495],[35.30179885845119,32.77242820755948],[35.30242840301624,32.77221091586177],[35.3015232448723,32.770582235199775],[35.30502526196812,32.769670575800724],[35.30608761963249,32.768588810313815],[35.3065218212229,32.76848178171698],[35.3062756562452,32.76816695733129],[35.30108987548034,32.769391902374316],[35.29923906506,32.769577719655445],[35.292944142699035,32.76927180777897],[35.291139232114354,32.76937983129784],[35.28984370038747,32.769625313523264],[35.28971760961269,32.76892974768375],[35.289914230626174,32.76802376674159],[35.2916749287606,32.765663346748966],[35.292329343510886,32.765468906668076],[35.294279300791835,32.764286405049155],[35.29514780668115,32.76314516414064],[35.29691358238405,32.761702441738784],[35.29793960302599,32.761164206494],[35.30016703976673,32.760578952894974],[35.301355224560695,32.76008097709757],[35.3035413739488,32.757495330780415],[35.30354914763734,32.755787379136116],[35.3026429820166,32.75559590059262],[35.30293095499331,32.753453879532756],[35.302405189239856,32.75283678874154],[35.30266010386096,32.752254540993505],[35.30436834051569,32.74982795950845],[35.30413593508643,32.746992293247814],[35.30361809635552,32.74638518421356],[35.30345787676437,32.7456290064054],[35.29909376045972,32.74597728200023],[35.298531090346806,32.74614001219012],[35.298389156601374,32.745768164705474],[35.29495292700925,32.74651729271245],[35.29503286133094,32.74533162085357],[35.29490878166763,32.74512488341596],[35.29343602640931,32.74439514612355],[35.292574757340134,32.74426230471256],[35.291739512895255,32.744446346223796],[35.2912824027131,32.74257957484486],[35.2905070886007,32.74160232480173],[35.29031149077471,32.74181724103447],[35.288762524593245,32.741127299928095],[35.28849038667557,32.74096264242673],[35.288693622062816,32.74089515773553],[35.288205713953566,32.74058777866061],[35.285933169791086,32.73956195051148],[35.28610103344598,32.739336516389706],[35.28488007855928,32.73875330169321],[35.28441104786373,32.73706123417356],[35.283493961295044,32.73633310781699],[35.28318677274528,32.735809185880605],[35.28269151691417,32.73543359830898],[35.281831392118555,32.734999508445405],[35.28128740852775,32.7349637047279],[35.280505533713885,32.73535153757306],[35.27971195734935,32.735285486347266],[35.27650695489027,32.73453222316945],[35.27670347428005,32.733271413908135],[35.276579506547044,32.73226311745839],[35.27704710411525,32.732101926525665],[35.277166448344346,32.73191577257002],[35.27637011774428,32.729259729044635],[35.275580490312784,32.72962096090857],[35.27411817523606,32.72861967274777],[35.27148575438447,32.72755665491509],[35.2704244606192,32.72697116753762],[35.26903090178463,32.726568863737924],[35.267661763986055,32.72675130965155],[35.267593046492124,32.72662619301338],[35.26533059255743,32.72708673159586],[35.26508729230428,32.7279558264939],[35.264475506196625,32.72819605941009],[35.26267394583821,32.729871866294616],[35.25807214270719,32.730888439376365],[35.25569199462716,32.73121943966757],[35.256158087615894,32.728365032820136],[35.255741903235965,32.7275423979114],[35.255735474332496,32.7267911682033],[35.25356085742735,32.725428772689206],[35.25287927322175,32.72444730780193],[35.2557822409268,32.72172863581642],[35.25489472049973,32.720856965284],[35.254948144719876,32.72030075149792],[35.25475452116573,32.71955571695779],[35.25401344935186,32.71951592785085],[35.25378848522584,32.719749212348134],[35.25342193065676,32.71937065388935],[35.25348993599017,32.71892348547146],[35.253338256962245,32.719039878413795],[35.25312694556806,32.71878631515448],[35.25295315183073,32.71888651886937],[35.25269650869606,32.71862146574131],[35.252844319778646,32.718062395725966],[35.25381313187351,32.7176324537323],[35.253415313693836,32.717179632045394],[35.253388518405266,32.71647519848956],[35.252965452791486,32.7158472502126],[35.253031849317374,32.71535297723945],[35.25424395577382,32.71417082866111],[35.25403682162993,32.714017416792885],[35.25485767361541,32.71315378749934],[35.25419145352658,32.712613020292366],[35.25338082871975,32.71137011203103],[35.253667379695116,32.7102947115946],[35.254216087824474,32.70982054373647],[35.259440839188116,32.710218249270746],[35.2620833520331,32.711147963208695],[35.26329514547223,32.71102559379843],[35.263322246596665,32.711323250068894],[35.266489490124314,32.71118903774601],[35.26802431401251,32.71074709823601],[35.26943376231805,32.71055927103612],[35.273480926787464,32.70841852705189],[35.275500167999304,32.70781586935063],[35.27712693921911,32.706031750335285],[35.28087798688865,32.707288529315846],[35.28064339653218,32.70714552598347],[35.28062400674907,32.70688178996982],[35.28129047182707,32.70635839250402],[35.28134038156676,32.705096533059624],[35.2818733568251,32.704195623775504],[35.281777210538465,32.70342866823792],[35.28061949424462,32.701964663123455],[35.28057430194075,32.70153074321535],[35.28101443774407,32.70081361661751],[35.28191492120407,32.70028062051164],[35.28186647863402,32.69987053693933],[35.28120507741626,32.699463755246974],[35.28098454625962,32.69898429261331],[35.28152857867113,32.696833382527295],[35.28183279880238,32.696401501687376],[35.282008597632455,32.69564113824031],[35.28239808325947,32.69539829170341],[35.282221785660695,32.69516643185502],[35.28087679589948,32.69533976144198],[35.27756216879955,32.696583842374224],[35.275736241606225,32.69695177790781],[35.27246445129254,32.69794773037478],[35.27312084264433,32.696697940407894],[35.273272308392045,32.69605031801988],[35.27467462501459,32.69520137052985],[35.27466990830767,32.69407141708862],[35.27510484474223,32.69393084321189],[35.275129509411194,32.69351491557255],[35.27403444989834,32.693688544657206],[35.27387734013298,32.69349138269141],[35.273915045402916,32.69312335048227],[35.27374738262396,32.693067650857465],[35.274025824749465,32.69277307025337],[35.273836505894714,32.692490099498436],[35.272981572276336,32.6932489764997],[35.27303674681168,32.69349804373267],[35.27259764632119,32.693637487378986],[35.2720910567325,32.69267574795721],[35.27319276367799,32.69205409670817],[35.27291486865514,32.691651296989214],[35.27302274066962,32.69130182527886],[35.27251345208606,32.690501266719544],[35.27202284739899,32.69016227073427],[35.271518965620444,32.69010730431382],[35.27091049861871,32.69034095315246],[35.27101311698865,32.689644328200835],[35.2706633760208,32.68939203351551],[35.271117147327956,32.68883103720118],[35.271165096140216,32.68833507167466],[35.270375818750914,32.6882819464918],[35.26851031477433,32.68879126022179],[35.26684187711723,32.68990081353327],[35.26512082879413,32.69014707320515],[35.26350357106316,32.69069129648755],[35.26359707197919,32.69103279509539],[35.2627239600446,32.69170153373497],[35.261525956343604,32.69211467240581],[35.261004880935985,32.691560300789284],[35.26038733797466,32.691193693536725],[35.26023105551172,32.69146709505816],[35.259855782667586,32.69165098588581],[35.25977237531125,32.69203312159453],[35.257787061062565,32.69218952709761],[35.25671024196533,32.69253657467043],[35.25705100762592,32.69315861220719],[35.25680274211579,32.693153644926255],[35.2569025541175,32.693452857364704],[35.25661845981839,32.69458349494355],[35.25599479045905,32.69573850613921],[35.25564768921179,32.69540614288776],[35.2552195835902,32.695614272964626],[35.255572970214764,32.69615740949171],[35.25612624286229,32.69629131193101],[35.255879900848356,32.69790998206602],[35.253646886387166,32.697255449225175],[35.252461866930695,32.69731902846003],[35.25034923623714,32.696083913183095],[35.24944349434321,32.69581767455714],[35.24798958474747,32.69456424859158],[35.247990446997456,32.694280207815844],[35.24868196064297,32.694347595722476],[35.24840640941608,32.69409352223556],[35.24822113427607,32.69307239938753],[35.24457833994231,32.693131169515844],[35.24457041937519,32.69331780894335],[35.24172256591676,32.69357793727655],[35.23763662040427,32.694701518683246],[35.23594350621504,32.69491732017156],[35.23396756977743,32.69466619356983],[35.23124102851303,32.69385401208701],[35.2312264931281,32.69279590685575],[35.22991788372343,32.691776059424406],[35.22838019423017,32.69220894386429],[35.226801141807435,32.69307323203325],[35.226702667859925,32.6932941758166],[35.22356569276396,32.686124845889154],[35.22520503188598,32.68490700390687],[35.22639835513115,32.68473132736236],[35.2265401715723,32.684311916372245],[35.22791576051814,32.684744487731166],[35.22940644319869,32.684825101131466],[35.229663976137985,32.683112049904786],[35.22980650578966,32.68309049637166],[35.22996551672322,32.68266601841777],[35.22967430091907,32.68191277105708],[35.229170264372456,32.681232505499274],[35.23004859813416,32.67521695828972],[35.231372929755295,32.67390068467751],[35.23037414768964,32.67318993058041],[35.22851992858652,32.671135241738675],[35.23206037156081,32.66908701652896],[35.23429272099734,32.66921407112821],[35.23829807592708,32.66764619842126],[35.23991661814185,32.66722501115231],[35.240529592971995,32.66667506115669],[35.240160713581446,32.66607462606942],[35.23855477391555,32.66481447673058],[35.2363032540906,32.663997104123126],[35.23611833146034,32.66366105673134],[35.23601830300756,32.66252839944353],[35.23789159562478,32.66219337478272],[35.238068582994146,32.663065979865934],[35.24305676878662,32.66253253306992],[35.243878940608454,32.66257398149941],[35.245303492985386,32.66287517600346],[35.2465754371015,32.663372835185726],[35.246202184382554,32.66441836090892],[35.24563586191796,32.66735193810129],[35.24771167115312,32.66775448637298],[35.247708453779815,32.66881995164871],[35.24822797913517,32.671713640605006],[35.25049853912753,32.671719138288424],[35.25047957425724,32.67236758981545],[35.2512191639897,32.67255588597719],[35.251219849505745,32.67245775407623],[35.25159218550954,32.672442019497396],[35.252644607540404,32.67260561845391],[35.254243583114075,32.67223475018575],[35.25807038524651,32.67273091775069],[35.260162779013804,32.6736244147137],[35.26281937518154,32.67609101382846],[35.264715960825974,32.677505082999986],[35.26656713464343,32.66921593405639],[35.267517297435816,32.669742644847645],[35.26851392170059,32.671139175084825],[35.270574289682635,32.671624399595174],[35.27220566911084,32.67133920060283],[35.2737155989391,32.6718031079159],[35.274030172179486,32.67347195051885],[35.27578535113169,32.674486743936406],[35.277858371078906,32.674531760415285],[35.279223741856164,32.6743821711779],[35.281414901765416,32.676312847814636],[35.28406213445732,32.67732074792567],[35.28417519599093,32.675759868756316],[35.28444416207632,32.67474470817045],[35.28491400954686,32.67389961461598],[35.28497823264959,32.67325597587619],[35.2865762217367,32.67285311568786],[35.288302452977334,32.672792796769144],[35.28904009804037,32.67369514231101],[35.288276092096005,32.67402183451808],[35.28833315359163,32.67436130562409],[35.28917023120373,32.675893155670856],[35.2894669634594,32.67601102510215],[35.289436424626885,32.676248794898974],[35.28998475897538,32.676037288881936],[35.2912156430639,32.67625854236166],[35.292395725775044,32.67608684592924],[35.293403167767416,32.67677390931626],[35.29439836772659,32.67716787987426],[35.297812540214224,32.67757507144191],[35.29921488104426,32.677994100308624],[35.300926189528425,32.67899462824224],[35.30512818273201,32.68319564754608],[35.30574229389625,32.684768794920736],[35.30568112056819,32.686155007493966],[35.306276613173935,32.68385595778281],[35.30676728997372,32.684007841200696],[35.31057221107573,32.68363551877009],[35.3119483836378,32.683871496760474],[35.31427295614112,32.68354910481392],[35.31472638572033,32.68333854604621],[35.31387161437029,32.68326869163425],[35.313364340143764,32.68301336823275],[35.313113387317834,32.68329365738995],[35.31189065906131,32.68255609755459],[35.310095905310305,32.68179457877333],[35.30989300728751,32.68135295511802],[35.31000790861284,32.68031520673853],[35.308687080020555,32.67931240697574],[35.30804139505641,32.67844212186951],[35.307917808681964,32.67780790381245],[35.30763046595029,32.67772705407313],[35.30793016443283,32.67678259022441],[35.30774878515198,32.67491363091174],[35.3082941230041,32.674785620772894],[35.30974429982161,32.67395010236753],[35.310354398974106,32.67386560865109],[35.31156774981992,32.673960557529796],[35.31351914319347,32.67489299314291],[35.31350731364211,32.672339840555104],[35.31720023828776,32.672419044398204],[35.31609689048111,32.67074566429831],[35.31347517004076,32.664423992954795],[35.31687982904504,32.66416490036208],[35.31627138604305,32.66263969097648],[35.31595002618741,32.66062902810377],[35.319919161111216,32.660171280506596],[35.31935444268364,32.66154696730977],[35.32377178733811,32.66291247539976],[35.32357940470178,32.657691029183255],[35.324431123600625,32.65795225589868],[35.32482622669661,32.65792085848054],[35.325123484635114,32.6576573633458],[35.32568395583855,32.65765628112917],[35.32621235676322,32.65798038672386],[35.326820514037564,32.65808178259877],[35.32728622850255,32.658553010790015],[35.32776266652548,32.658288791964125],[35.32806472441034,32.65679417327655],[35.333271533842094,32.6572151401065],[35.33245112671888,32.65985312465844],[35.33204917735823,32.66310195873641],[35.33309279136205,32.66351511685986],[35.33438529709323,32.663837839189206],[35.35200548000908,32.66303837286848],[35.35166444781643,32.6685318967553],[35.35195581327595,32.67051274859212],[35.35144815583687,32.67092337831106],[35.35097093953504,32.67206403990951],[35.350382861685205,32.674902018030764],[35.35121636247485,32.67453951511811],[35.35176753952626,32.6741021032886],[35.35245110222623,32.674143565537236],[35.35281401959069,32.67357207549766],[35.35340095228901,32.67313196132074],[35.35442144300787,32.67303775556038],[35.35491944049274,32.67288893942608],[35.35501841395037,32.67271415455233],[35.35313874317014,32.6808232117411],[35.35957613606797,32.68015782425111],[35.35954469670011,32.679028470169506],[35.36566180094883,32.6783515241744],[35.366324208760275,32.6799526380692],[35.37254885026604,32.67941805216075],[35.375671788131264,32.67791867829713],[35.379814846503585,32.67703604206068],[35.380494555267376,32.67874608717488],[35.38476494287269,32.67598980189064],[35.386397562167915,32.67536366081403],[35.3859103641946,32.67396921914912],[35.39206061581123,32.67238062245835],[35.393339370479204,32.66901931146322],[35.39444448530733,32.66912661831085],[35.3943760422636,32.671564672336935],[35.3950041923305,32.67154669734414],[35.396328517152824,32.67276311629488],[35.39678054865702,32.67276044397742],[35.39682711096627,32.67307653235883],[35.39744841688805,32.67127076335733],[35.39770758381575,32.66947764831722],[35.3992204765624,32.66704688541083],[35.399494358998545,32.66622195794366],[35.39940498752545,32.66564331128049],[35.399665273758586,32.66507989914077],[35.40042446801595,32.66476649781421],[35.40072313771023,32.664850003831994],[35.400988087944,32.66459485539559],[35.402115810101606,32.66469144539781],[35.4027667254042,32.665552686853616],[35.40338911299123,32.66588185084156],[35.40487460695262,32.66587759138142],[35.40558933508155,32.66609285854612],[35.40598169629722,32.66583334745583],[35.406714121943224,32.667671477091204],[35.40705991185493,32.66817335291354],[35.408237929447324,32.66921301206204],[35.40910290669172,32.66975816929155],[35.41029829732852,32.67006438439931],[35.41218116567391,32.66976362621733],[35.41330886434782,32.67035688343944],[35.41388346717672,32.67039379746539],[35.414675277339434,32.67017633307803],[35.41534927070045,32.67022668965861],[35.41694707274206,32.669852872845915],[35.41620378493884,32.66835785239261],[35.415841633070926,32.6669399347554],[35.41977740324569,32.66667515071563],[35.421581942339586,32.665057977182855],[35.42171053596735,32.66478385785118],[35.42516693912284,32.66335481261617],[35.43034914075644,32.660072940300374],[35.43235253832382,32.6597616085734],[35.4352760916183,32.65833762820164],[35.43781018578364,32.65520106679037],[35.439972338217196,32.65369562727167],[35.44389276585311,32.653323871709894],[35.44619886508126,32.65152066884372],[35.44666361492503,32.652164926757045],[35.44796757573122,32.652630729649644],[35.44854791755501,32.65322022410377],[35.448660965839466,32.65345163252377],[35.44844408488401,32.65484526699736],[35.44901824183689,32.65521953229978],[35.45050983769285,32.65754404943133],[35.4508516226455,32.65779360389782],[35.45146143338778,32.65787524896458],[35.45208787194373,32.657766373412116],[35.45255684453135,32.657269505530365],[35.45257231440079,32.65696007410584],[35.4521310849817,32.65628409895413],[35.452292191453346,32.65569879510667],[35.453115526061296,32.6539839129977],[35.45390472364079,32.65318094984623],[35.45455138731678,32.65364911601679],[35.454684098870395,32.654178044857915],[35.455305938438784,32.65422076192525],[35.45550863621787,32.65416512491789],[35.456276342789515,32.65324891319788],[35.456690422557735,32.65302828923578],[35.45762478015467,32.65357588797267],[35.45819558055031,32.654890672459906],[35.45876482881968,32.655297544962],[35.46071453786043,32.654687740175866],[35.4613805054136,32.65414422591821],[35.46338475062752,32.65449910001292],[35.463803945226616,32.65386309005701],[35.46357178483344,32.65299849033746],[35.463607404345716,32.65241399448501],[35.46438344463861,32.65164818746868],[35.46533346912926,32.651098990456795],[35.46588968238102,32.65125901417815],[35.467704601612375,32.65226626545663],[35.46831744127039,32.652423341716045],[35.46977314441022,32.65257525454157],[35.47055168305896,32.65238875527958],[35.470588388887656,32.65173662680446],[35.47030037896511,32.6512102990689],[35.46893389073338,32.65080797909124],[35.46855035301388,32.65024296213745],[35.46881893097209,32.649037482319855],[35.46975407229307,32.648373314758736],[35.470125627386054,32.64781459404434],[35.47010135289764,32.6470960929636],[35.4697706006422,32.64686460146327],[35.46930174327251,32.64684192170168],[35.46733256293347,32.6472078728488],[35.466729835575244,32.64690762436106],[35.46652320547525,32.64657836621069],[35.4666749255508,32.645668447061546],[35.46718585439865,32.64527400531646],[35.46775777328904,32.64512233438294],[35.46938866476218,32.645257541032414],[35.4702051042393,32.645181986428454],[35.471001452374544,32.64473395071147],[35.47120972713699,32.64415528460965],[35.47128017006299,32.64309054949684],[35.47168906981449,32.64233280383711],[35.47165161561614,32.64188935318762],[35.47086492568065,32.64053056465883],[35.47112061204516,32.63943387575047],[35.469829626619095,32.638375406772134],[35.46943381490734,32.63730207574695],[35.46865743582561,32.63682016777962],[35.46824546563131,32.63687231825211],[35.46794240521737,32.63653030320874],[35.46787437249253,32.636156798918734],[35.467279959544165,32.63560067244249],[35.46728846838556,32.63532168664345],[35.4666807317167,32.634076900394795],[35.46659167115607,32.63334162511876],[35.46694475383181,32.632230650661235],[35.46724290205457,32.6319809281131],[35.468405441799334,32.63254769698594],[35.46936591165042,32.6322295101074],[35.4704596990825,32.632683689669356],[35.47142214666234,32.63264050687174],[35.48031988944784,32.62769170621389],[35.48051601428038,32.626712351180565],[35.48165493507056,32.6257638240939],[35.481271317683245,32.62562720478776],[35.48109690540757,32.62494786325177],[35.48068133960924,32.625048800092245],[35.48051730908474,32.624641518574485],[35.47972059065565,32.6250465367157],[35.47943039717563,32.62480088152175],[35.47942310580144,32.624508593665674],[35.479096847782614,32.62449577837968],[35.478948777188556,32.62470720829074],[35.478577909367324,32.624749969950564],[35.478081024180256,32.62436943677143],[35.47763637501699,32.624337925172725],[35.4775648981038,32.6244964111675],[35.47586280236827,32.62375581466533],[35.4752630987012,32.62374222399674],[35.47457938758934,32.62344462995633],[35.47399451714745,32.62357850404728],[35.472413573559166,32.622694155372656],[35.47190686192671,32.62222430528184],[35.47175230164468,32.62187143565995],[35.471256127606416,32.62171551649386],[35.470804090726006,32.62134297794523],[35.470354475826376,32.62124920372409],[35.47005951291847,32.62045817482604],[35.46928219470325,32.62039621674151],[35.46881741468304,32.620581236521176],[35.468365163246794,32.620130200487736],[35.46587763989203,32.61923008008721],[35.464698026470344,32.61939221365556],[35.46407373040137,32.619158042375105],[35.46352580022961,32.619343214509264],[35.46140823875885,32.619185177105656],[35.45899142987052,32.620072418860346],[35.457498151125115,32.621287950745604],[35.456410898021325,32.62189639031719],[35.45591302643104,32.62193489257335],[35.455141645046915,32.62288617377021],[35.45458877019176,32.62326060519372],[35.453603821460256,32.623569369930266],[35.45209413815105,32.62375551054499],[35.45111571938552,32.62367331348791],[35.45073702730686,32.62396728435569],[35.449711261362886,32.62432500145162],[35.44833654703351,32.62454966384937],[35.44794842792575,32.62447884245336],[35.44529944491697,32.62575783588995],[35.444588446842175,32.62597964494273],[35.44447071965931,32.625813818013306],[35.443027028623135,32.62642451778708],[35.44203358091571,32.62658652842853],[35.44182557449954,32.6267631227109],[35.44106517552166,32.626751228850786],[35.43995044856365,32.62737212774475],[35.4390486188947,32.62816399934903],[35.438092855535466,32.62855093539035],[35.433371932129724,32.632482253293766],[35.436757821442995,32.63709853650598],[35.43676030098775,32.637864427233794],[35.4370725372072,32.6384505265538],[35.4369021722799,32.64345202280677],[35.43513881965146,32.64455969574458],[35.434858269882554,32.644047225754804],[35.43375170066006,32.64334852982009],[35.43470088225017,32.64634544309399],[35.43082505192336,32.64599631615577],[35.43123598953451,32.64779774007734],[35.430714414156114,32.64793997999634],[35.42902639263267,32.647867087385094],[35.428672037588015,32.650004959478366],[35.42761214593467,32.64955093303543],[35.42619771661621,32.64996854035492],[35.42465256049073,32.64990159624034],[35.42415430617626,32.654127574372644],[35.42498646104792,32.65561622273199],[35.42467578895729,32.65575699278136],[35.42331699516178,32.653865233991084],[35.42140661508976,32.652550646447224],[35.420235498173525,32.652065042255465],[35.41922432518336,32.651182646484784],[35.411974088315766,32.648685397446215],[35.411083262866924,32.64567200813811],[35.40632205970197,32.64588770245954],[35.40497939783179,32.646143863345166],[35.40463892258653,32.64656678359532],[35.404160539411095,32.645394531876974],[35.403029691958665,32.644026981609656],[35.40147091170756,32.642679119409244],[35.399948060639616,32.63955245699831],[35.399683878879095,32.63744853343613],[35.399085756588,32.63609652711868],[35.398129033658606,32.63463587351209],[35.39708599239853,32.633244907638584],[35.39556773892981,32.63244582727445],[35.39560697000271,32.632023651256496],[35.394787496992976,32.63158474571626],[35.394841224861224,32.63045864395739],[35.39559848159685,32.63053752156672],[35.395539500269955,32.628876034738724],[35.39467768490672,32.62886961490639],[35.3906006858754,32.62963429704068],[35.38917539167817,32.62839823129259],[35.38816506124753,32.6272359712055],[35.38701241251822,32.624549932022354],[35.38681062806329,32.62299250666357],[35.3864100139776,32.62214885382789],[35.38530227308847,32.621520378321755],[35.38389710956684,32.621178050546156],[35.38268779809836,32.620358081653535],[35.38214853034876,32.61857625995207],[35.3814174338649,32.61743241183936],[35.38113420413315,32.614021189325484],[35.381393290934234,32.61074927096146],[35.38172672445919,32.609229965197386],[35.38138016370138,32.60889794263799],[35.380731808166445,32.60754909289544],[35.379798317551575,32.60733755934128],[35.37952257378016,32.60611748084946],[35.37898354187579,32.60672702360059],[35.37682723576367,32.60716339148533],[35.37535021998358,32.60780976283395],[35.37353800970944,32.60734127224338],[35.37279894538193,32.60513772894305],[35.373148358390225,32.60452747185854],[35.373144268492325,32.603234069569],[35.37435594697617,32.60159581122613],[35.373120795551216,32.601100965415625],[35.37158727785841,32.60089578985458],[35.37241177636701,32.59907811298242],[35.37313168179499,32.59843043117306],[35.37231622447685,32.59813391109475],[35.37335429756524,32.59679101065914],[35.372986201600014,32.59399855851442],[35.373143611076216,32.59369521228449],[35.372379340525335,32.592933479600696],[35.372353075451684,32.592593114208704],[35.37163224774069,32.59151426198829],[35.370385258694554,32.59155649296869],[35.36528616490753,32.59380278240077],[35.362213489242286,32.59364267738373],[35.36139645519029,32.59373556125666],[35.361079411083956,32.59336005380786],[35.360151409321844,32.593285686417715],[35.35867325268468,32.59257514848897],[35.35824968429527,32.592674294730365],[35.35747701169214,32.59242557283126],[35.35751036917818,32.593544796393495],[35.35735405304998,32.59362219773762],[35.35722139893331,32.594305414541694],[35.35733341101993,32.59460002903352],[35.35713420282515,32.59500210173248],[35.35739710062891,32.59515451123929],[35.357552753126626,32.59576129395147],[35.35719776975112,32.596270072488366],[35.35723474384049,32.59667636641444],[35.357072661978464,32.5966957250799],[35.3573395816293,32.59744890260765],[35.35705677736077,32.59782966173025],[35.35726211311118,32.59848485085394],[35.35701476145713,32.5988678200909],[35.357288589257784,32.59927495305364],[35.35708799808819,32.60063454356049],[35.35730177995593,32.60096566741543],[35.357427652211534,32.60177086392285],[35.357788456025936,32.602321601575845],[35.357883271192165,32.60316403228962],[35.358522144391166,32.60443330464952],[35.35669359885957,32.604126376588425],[35.355770393967454,32.604196249542575],[35.35503752111891,32.60450991520628],[35.35606622205002,32.606490773519646],[35.357468098538575,32.608327457628896],[35.35702442388674,32.60859118824153],[35.356792553115056,32.608498478841994],[35.35569215837943,32.60805683836277],[35.35517423338642,32.607521501337786],[35.35438732929703,32.60709525280467],[35.35165690006129,32.607509893536395],[35.350992686747034,32.607078971221895],[35.35051575346696,32.607165190404494],[35.3502631273077,32.607511519608735],[35.350105422908,32.608497960402374],[35.350739587765304,32.609383728851675],[35.35068186686812,32.60961429765352],[35.35291158320258,32.61199109662294],[35.355403086855404,32.61107682645333],[35.35637105812979,32.61095730645174],[35.35831317831528,32.61112176018953],[35.36369078217403,32.61039537104077],[35.366032999600804,32.60891205278522],[35.36686188978503,32.60816118626248],[35.367755649376484,32.60797635744456],[35.36794833208472,32.60985563043707],[35.37049649023914,32.61161496779773],[35.36836052297569,32.6131576446911],[35.36873243794543,32.613806397277536],[35.37194920798575,32.613105568771516],[35.3734108313058,32.613199418415064],[35.37303697784406,32.615264295410505],[35.373672251779546,32.6170364474529],[35.37424806521216,32.61754796048448],[35.37313302126826,32.61863096234406],[35.37114882565609,32.62011694157179],[35.369166285617375,32.62117787526479],[35.36737231355874,32.62290351651705],[35.36621860542293,32.623466513203915],[35.36489353204924,32.62402847400521],[35.362809020544894,32.624518499588135],[35.36224587506302,32.62445617849635],[35.3611228716807,32.62389319907481],[35.36119560037666,32.624538107807545],[35.360814582818314,32.62686102247912],[35.35929781851422,32.62995979085579],[35.3596699240592,32.63131353138125],[35.35854168660895,32.6320893166357],[35.358277952245366,32.63265627953121],[35.357600287135604,32.63295597434099],[35.35724317805474,32.633733626994875],[35.35687742880564,32.633994794267004],[35.3565187064362,32.63464386180032],[35.35546894897845,32.63495473382066],[35.35528311663008,32.63533552708836],[35.35482630837974,32.635498384292866],[35.3545433246591,32.63582761536812],[35.35373664417311,32.63628319616415],[35.35325933196166,32.63717656216505],[35.35246937493622,32.63787790496791],[35.352372087393896,32.6381503652565],[35.35247996970219,32.63853876989275],[35.352119373828835,32.639401028618245],[35.35302104053236,32.640560537157796],[35.35288493696541,32.64130428888023],[35.35406102290133,32.64318008572529],[35.3547039941853,32.64508707844962],[35.35502527049913,32.645241878729905],[35.355215188827984,32.64558613958251],[35.35496773669613,32.64560506424234],[35.352865929863185,32.64448077758039],[35.352310050956675,32.64434662803613],[35.35003279636294,32.64324583389355],[35.34692001398793,32.641660954796954],[35.343955519030295,32.63992931413521],[35.343532472996124,32.640580319149976],[35.34322179781509,32.64033860525933],[35.34153163932157,32.63994819409244],[35.340953085984744,32.639400817858686],[35.33964831634895,32.63902940704601],[35.33585759471064,32.638656070690985],[35.33368152521657,32.63873846209332],[35.330476555210126,32.63938235244079],[35.323186819525105,32.64172894938194],[35.31982358372851,32.64184073502566],[35.31787121739027,32.641562255588866],[35.31613954686345,32.64104481092142],[35.31470234453964,32.64037138263766],[35.31242370503456,32.6387472967091],[35.31098526265367,32.6369735488487],[35.310390773806446,32.63605057393505],[35.31051251454533,32.63594214052543],[35.30669713648082,32.629990260887375],[35.30572123504579,32.628842465003345],[35.303520299201864,32.62696369959678],[35.30053168173857,32.625364044230885],[35.29773106478992,32.624434824539684],[35.29402306155546,32.62415702462428],[35.29296009419977,32.624309533594776],[35.291954544410785,32.624775971481895],[35.291713966223,32.62508579944558],[35.290003550695864,32.625187063293986],[35.2896744298363,32.624468019588704],[35.28836757132049,32.62334463390392],[35.28354789336662,32.621978473636894],[35.281483508976166,32.62117930043793],[35.27957785865422,32.62013985205251],[35.27890434423748,32.61947852300078],[35.276775668382435,32.618161725088726],[35.27545726403683,32.618706188445195],[35.27483163537539,32.61771367400471],[35.27087704830246,32.6195174538723],[35.27271018730346,32.61419730515558],[35.262100194159665,32.603113527794676],[35.259331830815874,32.600574366077865],[35.256404531137306,32.598478833709834],[35.25672274779139,32.5981746222874],[35.257404191203044,32.59801112465673],[35.21428781989214,32.58157992959025],[35.20882709870791,32.59225421197101],[35.20482156737282,32.58868387865416],[35.20152912747422,32.59143952848287],[35.202383932604334,32.59281333023069],[35.20563296794498,32.59704904882173],[35.20605674010624,32.59872907221785],[35.20259595555169,32.59981571128364],[35.198066308431876,32.60025223308705],[35.19786107028455,32.599567038740204],[35.197065909900786,32.598137302506764],[35.19649475878923,32.59744798094132],[35.196125056713925,32.596545709932464],[35.194725248369565,32.59549744551466],[35.19409486245232,32.59647937315007],[35.19509491395086,32.597399269435954],[35.194641529467155,32.59945540373612],[35.193634409443085,32.599341280405945],[35.19287587081985,32.59945736412388],[35.19238874745888,32.59916838811636],[35.19139739697706,32.599076971798475],[35.19084937155837,32.5982094554265],[35.19009010774036,32.59762463922859],[35.18811845688008,32.59975419886577],[35.19102021324799,32.601778972440506],[35.19202518093209,32.60400673069382],[35.180080629506904,32.605685571869365],[35.17965428239535,32.60586301437678],[35.17940671993269,32.60779997940453],[35.18100469586264,32.60992947939681],[35.181761282323585,32.6112466969665],[35.1817803091775,32.611712777090425],[35.18164553945744,32.61196104190009],[35.181553961743845,32.611902413341475],[35.17951895959156,32.61306380513821],[35.17699922939704,32.61532773003987],[35.17660721345569,32.616294740124616],[35.176715829982385,32.61821937536344],[35.1713805018821,32.61809917034414],[35.17088367295181,32.61823711385388],[35.168373299938025,32.61826967147642],[35.16752724334631,32.6186802725288],[35.164812274343426,32.620546008096824],[35.163109239184685,32.61813786310802],[35.16164707138065,32.619302209727614],[35.16368466123749,32.62240826317887],[35.16561929966577,32.62037267689064],[35.166494397344955,32.62814464491202],[35.16882692128454,32.62762402168479],[35.1718552176401,32.63949597205761],[35.17222398316138,32.64017122845246],[35.17167147030181,32.640162631100026],[35.1712719016728,32.64084107077836],[35.17061857701779,32.641436593051445],[35.168202704870836,32.641721652322126],[35.16604637008643,32.64292029455362],[35.16411995170556,32.64487416529611],[35.163503587419115,32.646046760909655],[35.16380762013981,32.64690799931167],[35.169420228674234,32.651158685074634],[35.166405211052364,32.651312662066466],[35.16560385234123,32.650958626708416],[35.15922847614389,32.65388755738243],[35.1574144653225,32.64955399721658],[35.152155878280155,32.63896294130833],[35.14584793392017,32.641319276817846],[35.14545095372292,32.63977771820799],[35.145729225236565,32.63924470788054],[35.14403012574548,32.63617186049305],[35.14893433207984,32.632328857435205],[35.145750612683315,32.62994405344853],[35.13840308018342,32.636338992525125],[35.13649257351429,32.633711954050575],[35.135543263778096,32.6346317526051],[35.13296558982833,32.63346901165139],[35.1302738221581,32.63944503130668],[35.140098397512574,32.644869499245644],[35.142117469087324,32.64158871714529],[35.149984643927944,32.65496095422063],[35.14998604187479,32.655558259376065],[35.14941621413355,32.6568265732338],[35.14835028458589,32.65753744690597],[35.14753851306931,32.657879490068474],[35.14750038837661,32.658629943284865],[35.14678997559858,32.66144904729301],[35.14618351217588,32.66230765062291],[35.14511196475892,32.663270277430314]],[[35.17273640409024,32.69916910573254],[35.173796724541916,32.70184714606009],[35.17477389594916,32.70162664326507],[35.17490923233751,32.70227257025236],[35.17435117249635,32.70251048802585],[35.17484600217361,32.70449797095287],[35.17442035598641,32.70438832131644],[35.17399336055703,32.70461220292812],[35.17392242231122,32.704972598642094],[35.174254264540664,32.70597453294342],[35.176596393455625,32.70561165861895],[35.17888194687276,32.709494761454465],[35.18241481794515,32.71469715559793],[35.177547503786045,32.7164274832647],[35.17668275525469,32.715139545566124],[35.17568687436209,32.71436498036784],[35.17388392041371,32.71349496957404],[35.17375715754615,32.71330727170682],[35.17335869764661,32.713260396708165],[35.172349607593446,32.712745042425276],[35.172200439589865,32.71231162193559],[35.170806164118865,32.71108380659637],[35.170106532107766,32.71070546440475],[35.170149981860995,32.710391004791646],[35.16949760609361,32.70979287986952],[35.168994997593735,32.70977188605332],[35.16838287877292,32.70938510444177],[35.16774460632412,32.70939619081709],[35.16750337060872,32.70921859720968],[35.1668030735584,32.70811379683208],[35.16634821801903,32.70789893946876],[35.16596211526301,32.70746656624727],[35.165943723430416,32.70721915351236],[35.16519913396218,32.70649361223445],[35.16400987318231,32.70631683719921],[35.16355873882494,32.70637755818955],[35.163314447387485,32.705908012029084],[35.159077282275106,32.707165855405734],[35.15730380079789,32.70738742873438],[35.15660372144926,32.70621494220803],[35.15531804474059,32.70290006784056],[35.15600760865787,32.70136355692554],[35.16507477042705,32.69596273814506],[35.168046543054075,32.70042019899099],[35.17273640409024,32.69916910573254]],[[35.220449442142844,32.76871698918481],[35.22099642851241,32.768406733348876],[35.22105126179748,32.768105871326185],[35.22157320959782,32.76818339577024],[35.22147725850001,32.76868543909042],[35.22051281409614,32.7689059790641],[35.220449442142844,32.76871698918481]],[[35.19876336044651,32.74838856122876],[35.195925971485295,32.748773507546595],[35.19652824347267,32.748299939415936],[35.196469392336866,32.74816254781205],[35.198310541558094,32.74776219404844],[35.19673890129745,32.746432568894186],[35.19619736977142,32.746728264199476],[35.19548842117953,32.74681140682752],[35.194720145464515,32.74670042954441],[35.19434148194541,32.74682603933641],[35.194159781116724,32.74556470842932],[35.19535628146226,32.744467392088175],[35.195079050005674,32.74433547966379],[35.19525737204632,32.74411970807082],[35.195575500011884,32.74408046533671],[35.196380541064514,32.74438543576919],[35.197169026052066,32.74360753770388],[35.19716272235358,32.74318655740157],[35.196803020770375,32.7423986747174],[35.19688968477451,32.74210884005042],[35.1973603692433,32.741928133598584],[35.19810454326773,32.74229786979143],[35.20000423139686,32.74196713765253],[35.19997574078914,32.741599692531786],[35.200603431412645,32.74094372392048],[35.20105925877529,32.739716857424725],[35.20129562054477,32.73957427711936],[35.20207177936112,32.73950832175007],[35.20224098703321,32.740610863033694],[35.20210987890574,32.74059071483668],[35.20210293046374,32.741110721700366],[35.201457953944185,32.7417186492324],[35.201474946796516,32.74215259616308],[35.201687656619264,32.742581467268415],[35.20231459044099,32.7421540449143],[35.20339603107833,32.741895076507745],[35.203640024283814,32.742160700203755],[35.20309826547142,32.742573457591824],[35.202820451135956,32.74232769605605],[35.20141460534042,32.74321048377867],[35.20112100976956,32.743236144301136],[35.19944986581813,32.74292067174416],[35.197495169063046,32.742083364824715],[35.19707901696289,32.74225056475901],[35.19768866876617,32.74374347403759],[35.1980434791306,32.74360941562475],[35.19833294431241,32.74405732393439],[35.200328960374115,32.74459753932663],[35.2009266451003,32.745143013680476],[35.20106930379758,32.74552240542756],[35.201094165526314,32.74590161178466],[35.20063744304013,32.74631409721197],[35.197844520913414,32.74714494970929],[35.198806980190454,32.74801595088898],[35.19876336044651,32.74838856122876]],[[35.23367868780483,32.732595403963444],[35.23157401215381,32.73393965909641],[35.231084893268005,32.73549448725053],[35.231245364696235,32.735584955250346],[35.23116822008705,32.73583748137595],[35.23052291344058,32.73669780801603],[35.229770017154024,32.73677759027074],[35.229337230509024,32.736357314360355],[35.22826480212868,32.73684551174257],[35.224549575676704,32.73667869920229],[35.223323574697915,32.736256644685845],[35.22059339977792,32.73590027574096],[35.22087073989517,32.73698458030176],[35.220746396367154,32.73707235220723],[35.220452223595835,32.73697846870741],[35.219921894566426,32.73708407269675],[35.219209251875355,32.73685267519894],[35.217826770671316,32.737454685756745],[35.21765911546106,32.736888783331366],[35.21807328356321,32.736838766433884],[35.21793372409619,32.73644175765141],[35.21868290517727,32.73632470733361],[35.218609543563076,32.7359626029975],[35.219010937150834,32.73576690511114],[35.217255563382416,32.73391113545038],[35.21710988654742,32.73315491143828],[35.21425748294535,32.732625112609405],[35.21249398371122,32.73290101698672],[35.211659629184844,32.733526584093845],[35.21061519715922,32.733085271986106],[35.20945077646984,32.7319759443179],[35.209572013084276,32.72935170384539],[35.209947468652295,32.72815967228194],[35.20991575449602,32.72720844753624],[35.21030323694991,32.72635631820907],[35.21108734377025,32.72572078743414],[35.21214443150037,32.725371744932396],[35.212531141177024,32.72490659901249],[35.215038612138734,32.723392798991625],[35.216226156775626,32.72182504416213],[35.21657410901517,32.72211634675113],[35.217344386619004,32.72152536172974],[35.2180173472234,32.72154772856],[35.21854148238677,32.72118888615921],[35.218986724398356,32.7205254173576],[35.21813325740649,32.719800303629505],[35.21674666508653,32.71931014298391],[35.217551056877205,32.71816381174592],[35.217794369110514,32.71816413497048],[35.21861410058397,32.717531869880084],[35.218822885441256,32.716456831972586],[35.21866561507124,32.71577081139574],[35.21827522886451,32.715397380705284],[35.21684670288056,32.71463413979797],[35.21642836425406,32.714098634986854],[35.21574756807856,32.71411820953273],[35.214673383829044,32.714557406460486],[35.214354654345584,32.71455743214352],[35.21403129997906,32.71432878259966],[35.21306094957623,32.71458595168895],[35.21292036422931,32.71374918412167],[35.21279633878847,32.713749192477984],[35.212117599122074,32.71203672034066],[35.21213635881589,32.71180758264758],[35.21256200957141,32.711729365018556],[35.21265600416858,32.71130717842069],[35.211982706929334,32.70951797999607],[35.21210911419145,32.70948904189912],[35.2119782007072,32.70896213497115],[35.21306403447593,32.70893295128763],[35.21347275964636,32.711144892202405],[35.213175757028566,32.71104926556583],[35.2134228106868,32.71125109804023],[35.21361593035539,32.712334208953045],[35.214665199829255,32.71272271930687],[35.21505751232091,32.71182155429814],[35.21848677159308,32.712559945600454],[35.218218607930865,32.71344558562554],[35.219213191189034,32.713628176114725],[35.22025330355541,32.71373214572356],[35.22282624364523,32.71353685232704],[35.22415012565289,32.712887825512624],[35.22547732383392,32.71255237815553],[35.22703221146119,32.71165539154652],[35.229534674346155,32.71074938958889],[35.230286993538385,32.71256022807379],[35.2304065261276,32.71322660665783],[35.2299135713441,32.71436508816607],[35.229634173617434,32.714329357720295],[35.229557842846944,32.714437992708675],[35.229878139599826,32.71457231130124],[35.231988307060334,32.71444582614235],[35.231641137553424,32.71493338747776],[35.232150837146214,32.71510685438697],[35.232242836174194,32.71565067610613],[35.23280469159265,32.71630090633433],[35.23321479300187,32.71713870231574],[35.23384723929876,32.71753600346384],[35.23426360925037,32.718176328722656],[35.23260136809842,32.71896775004594],[35.231152744075665,32.720247927049755],[35.22917918077019,32.718367463627274],[35.22778953400936,32.71938284109293],[35.22641757787474,32.7206854186305],[35.22434876063926,32.7213438461859],[35.223395228014624,32.72182026100365],[35.22430511878301,32.723289641188344],[35.22462934209382,32.72346485932496],[35.226975357679514,32.72433516791391],[35.22941374336188,32.724233755776844],[35.23062387777058,32.724519196065266],[35.23166538315979,32.725590759445936],[35.232854387013916,32.72623847901293],[35.234028050741294,32.726550206378384],[35.23465919810358,32.72647261722315],[35.235522071703386,32.72580288067803],[35.23702103697007,32.72550190356238],[35.23765422501821,32.72667288326914],[35.23776652124867,32.72661588910118],[35.237922411991406,32.726856334179736],[35.2370482559959,32.729061654417634],[35.23749123558295,32.73057627109856],[35.23603367479389,32.732362062387935],[35.234163181360586,32.73292040852728],[35.23367868780483,32.732595403963444]],[[35.16966549748628,32.745324083937334],[35.17054873764427,32.74584974784],[35.17101419431625,32.74671812218857],[35.17190437348549,32.74700013825787],[35.17205597364156,32.74668156448941],[35.17099674604944,32.74578795716198],[35.17152240367147,32.74531205304459],[35.17248879339428,32.74608664370516],[35.1727817892242,32.745787745829396],[35.1729268281064,32.74592571941367],[35.172539769544535,32.746370090674695],[35.172594007248605,32.74685033502585],[35.17341577513772,32.74650362979266],[35.17421008749968,32.74635820503134],[35.17608610066204,32.74699814852053],[35.176871628857135,32.747108001258454],[35.176850588324115,32.74654032797107],[35.17649996047459,32.74657688295631],[35.176463419227545,32.746117819799686],[35.17705691955758,32.746117950723765],[35.17702753991457,32.747097810110006],[35.17886792776374,32.747271267840006],[35.18035591609827,32.74592972774157],[35.180268844990366,32.74585123040328],[35.18121753567702,32.7455882259439],[35.18311306412755,32.746035128826605],[35.18478370811939,32.74698349139303],[35.18523783982686,32.74656977395908],[35.18606363053084,32.746433909971636],[35.18629212893597,32.747285659024996],[35.186581699538145,32.7476008302492],[35.18755923700461,32.74658322731731],[35.187891149753234,32.74682254550586],[35.18855823848688,32.746491932206126],[35.189216352337986,32.74661226838183],[35.189394147610294,32.74707827619103],[35.1891220732254,32.74856092258936],[35.18945873873609,32.7488167292685],[35.18933513765324,32.74907509725936],[35.18970650933771,32.75134795552294],[35.18939106328958,32.75335833986429],[35.190162137830484,32.75329160298206],[35.19069562956695,32.75341580337344],[35.190308844319205,32.75457222519044],[35.190378238351926,32.75583323895338],[35.1905559888688,32.75641475506129],[35.19122872520205,32.75623188506691],[35.19148387411835,32.75636258618935],[35.191661682208455,32.75659781677473],[35.1916890715807,32.75714117025553],[35.19069098888226,32.7575497790237],[35.19069433885653,32.75768043767744],[35.19061918213595,32.75757376721093],[35.18928815666647,32.758002006417136],[35.18859460456071,32.75778612211335],[35.1876718166012,32.75785530519428],[35.187823064817465,32.75964043518393],[35.18825117695603,32.75964212590284],[35.18827430293371,32.760040685116195],[35.18655764508653,32.76013192263575],[35.186035055693566,32.7606554267926],[35.18536233226517,32.76072198906789],[35.1853595058633,32.76059420503784],[35.18493371426772,32.76049103552665],[35.18463978260629,32.76077450761496],[35.18455369381469,32.76067899849954],[35.182389592884334,32.760804231165366],[35.18101849594892,32.75998001769996],[35.18066511904398,32.76001771446342],[35.18051087651791,32.759575552423094],[35.17992843178782,32.75930429225438],[35.179485107757735,32.75926935683093],[35.1784336359503,32.75872902628766],[35.178454345933694,32.75842412583248],[35.17856785462323,32.75808439739448],[35.1800009125515,32.758163085814374],[35.18161212836305,32.757330787421054],[35.18129019757628,32.756063836492736],[35.18182632689777,32.75596919430482],[35.183550513560384,32.75643338778922],[35.18412251026743,32.75729592818941],[35.184686925958545,32.75751163124906],[35.185135631334866,32.75646630843929],[35.18655038926922,32.756914475981],[35.1888694201953,32.75678701937234],[35.188646470652536,32.754362949589094],[35.18880900562685,32.753441717641856],[35.18919561657248,32.753389495330104],[35.18957353197506,32.751422256323636],[35.18915109691074,32.74893289457014],[35.18882106193697,32.74882646029618],[35.188494615305885,32.74897085935513],[35.18554828222618,32.751428037913584],[35.18580251696924,32.7519750122231],[35.18467860613128,32.75220974627197],[35.184747828814366,32.75290021544952],[35.18199587954103,32.753101680571376],[35.181857495451844,32.75164908899412],[35.17841187348268,32.751707044852665],[35.17785674761857,32.752136835564684],[35.179984494443396,32.75430138477229],[35.179093142432535,32.755268488262026],[35.17820277491877,32.75475399639171],[35.17917511268151,32.75382089521198],[35.17881017451044,32.7534239426463],[35.17785622191086,32.75390857648101],[35.177412421022616,32.75324294562385],[35.178114774900344,32.75294410961386],[35.178123555168284,32.75272855605324],[35.1775392590063,32.75293207966913],[35.17741004914418,32.75276821179619],[35.177918308151796,32.752496151508964],[35.17771025355712,32.75226056662159],[35.175531467995,32.75382591012602],[35.175430768965875,32.75363181725726],[35.17828207223643,32.7515591721124],[35.18083205926285,32.75145281708072],[35.180936342371815,32.751219146170044],[35.180770988320134,32.75028099872978],[35.179653643692156,32.74904968180696],[35.18014715745861,32.74832023801673],[35.180416882077225,32.748528730162974],[35.18079462957541,32.748320361682836],[35.180964286230655,32.74801424753528],[35.18036316384819,32.74764284864796],[35.17919923547473,32.747740326612806],[35.17918389373852,32.74747977298923],[35.177243776002875,32.74729260236742],[35.17728268326435,32.747455156195855],[35.17558240986393,32.748187052820896],[35.17539874652646,32.74854686722884],[35.17359262802403,32.74829267547857],[35.173562117487194,32.7487883860378],[35.17338003021136,32.748899450647805],[35.1731071114271,32.74844639820467],[35.17231209086976,32.74872769415979],[35.172434800878364,32.749074754659],[35.17209193968452,32.74928938366023],[35.172297510541405,32.74959743452168],[35.17222229890219,32.74978562571518],[35.17259165493699,32.75102127455563],[35.17245474071406,32.752059682894256],[35.17191414043581,32.75239126825502],[35.17118015510703,32.75256895629999],[35.169541847072225,32.7520252521226],[35.16928598196089,32.75163576451021],[35.168882137250144,32.749765796671085],[35.16790046661419,32.74977346215827],[35.16787200219107,32.74930841179772],[35.1671475801738,32.7491521138676],[35.167188596481424,32.74850390763366],[35.16556659822676,32.7484472258703],[35.16613623381271,32.746735895065136],[35.167194610059475,32.746168915709575],[35.16966549748628,32.745324083937334]],[[35.24929996291835,32.61032583221086],[35.24743652446756,32.61032740413323],[35.24743192364509,32.60573160384508],[35.250247645274655,32.6057312318926],[35.25024688601675,32.60716875852249],[35.25314795929168,32.60801474451986],[35.253148007288665,32.60480263328887],[35.259961865560335,32.604565960924944],[35.25996532240114,32.6058514771155],[35.26040441679138,32.607706938008135],[35.25997043343288,32.608737551455725],[35.259966421064796,32.60978805965798],[35.25783679501609,32.60978259756332],[35.25783382116627,32.61004033807761],[35.25314747022863,32.61004451265519],[35.253147288800974,32.61059662907856],[35.25203875507277,32.6116835545341],[35.25099391588828,32.61052162668789],[35.24929996291835,32.61032583221086]]],[[[35.32381288585224,32.62044420060695],[35.32415776162128,32.61935621747675],[35.32471996585111,32.61835982034921],[35.3254148206289,32.61753119317235],[35.32557720109345,32.61690082419725],[35.32625549002661,32.61628438303861],[35.32826567280319,32.61496455208118],[35.3292671491921,32.6139420911941],[35.330328735012934,32.61333092704839],[35.332059793493464,32.6106054409065],[35.33172270541187,32.61012932969467],[35.33047308556199,32.606258178774404],[35.330008629478755,32.60622648591418],[35.33046781976639,32.60612898804089],[35.33062687513733,32.60594838564128],[35.33056167438267,32.60456179551848],[35.331011616793134,32.60395053786341],[35.33078695359642,32.60351827100695],[35.33298312900707,32.602579376503044],[35.33318027839389,32.60286265445856],[35.33571742282885,32.601891239184866],[35.35395678012047,32.60276351960075],[35.35206864183202,32.600102002300574],[35.350932794331655,32.59807379974285],[35.35065198600545,32.59713258125941],[35.35082516290115,32.596221534714935],[35.34990117215041,32.59515207065404],[35.349730281481996,32.59400746573696],[35.34905702986168,32.59315509319149],[35.34802105858365,32.59246024564094],[35.347752955567415,32.5914700984399],[35.34746924312399,32.59121725651388],[35.34733697622141,32.59051920582863],[35.346739986055,32.58922740723981],[35.34593713584205,32.588286115977134],[35.34442198602495,32.58687275260555],[35.343255220228066,32.58645270383373],[35.34329144154452,32.586339060931586],[35.34275242187202,32.58595530711454],[35.34158334039842,32.58531523705357],[35.34129501236388,32.58481847565746],[35.34019896061725,32.58392357567501],[35.33957660031316,32.58361766013922],[35.33711699377866,32.581829229971014],[35.33567130159355,32.58098795067214],[35.33522642091676,32.580977052830164],[35.334902672426495,32.58077161566155],[35.334518192771675,32.580843160463345],[35.333396397170596,32.58010165568133],[35.3321410699893,32.58003819397946],[35.33080296739257,32.57965333778528],[35.33037086979021,32.57971553984447],[35.328716379313555,32.57949644480912],[35.32795736701692,32.57967014431016],[35.32656258182495,32.57956474346843],[35.32601811162023,32.57898789643307],[35.32543558206024,32.57882813190786],[35.32492943682914,32.578256742785285],[35.32445106892193,32.57812022844022],[35.323935485105096,32.57762576239498],[35.32359058723526,32.57750552915897],[35.32337882523184,32.57674836993359],[35.32295845623164,32.57636112313643],[35.32247473634237,32.576958739534994],[35.32193871473526,32.5788455403436],[35.32117649306459,32.579562976939755],[35.32069482250369,32.580525598418596],[35.31989832865081,32.58126405729811],[35.31933735944192,32.58205132630631],[35.3187652199563,32.58244951825205],[35.31804373958086,32.582642570308074],[35.31664033711824,32.58342326049666],[35.316241067657685,32.583882582962104],[35.3156102612402,32.583851373175385],[35.3149819401344,32.584227131937794],[35.31407553406092,32.58429432929934],[35.31357271375627,32.58412997139702],[35.313233075751185,32.584437271005214],[35.31129887709108,32.58482390115561],[35.30947531395252,32.58488958604057],[35.30918468992788,32.585060179037285],[35.30893579593177,32.58476549689764],[35.30775458447432,32.58519713521224],[35.30647003582331,32.5847946630182],[35.3058338592441,32.58483237518615],[35.30493699985898,32.58450791206245],[35.30341790056334,32.584476994193466],[35.30220278459904,32.584694359827076],[35.300661665631644,32.58523940287407],[35.29927288892646,32.58191590847933],[35.29745490573044,32.58027033824583],[35.30576754670984,32.572633764411414],[35.297090090403316,32.56626862979052],[35.29622597223791,32.56814654893898],[35.296370636311735,32.57245726443563],[35.295940592467645,32.57303806524512],[35.293269916075275,32.57505928595596],[35.29247683044616,32.57605963383131],[35.292700296512216,32.57675938288132],[35.29266612436141,32.57853474050476],[35.29309353729598,32.581487592872804],[35.29398729967101,32.58445983693857],[35.2942010663213,32.585699703840824],[35.294747108229814,32.58621551503931],[35.295692363741466,32.58768904073679],[35.2962659718575,32.59448706324192],[35.296918202325834,32.59716179473954],[35.29781913220488,32.598971609553345],[35.30034934673582,32.60320635761194],[35.302832220819035,32.60640708473004],[35.30327810902071,32.6067770187047],[35.303620387584445,32.60976755876869],[35.30840300518997,32.61060158804343],[35.31427864001964,32.6110541862649],[35.317692127797066,32.618481884411096],[35.31916694126753,32.61794794794327],[35.32375033824364,32.62148856265627],[35.32381288585224,32.62044420060695]]],[[[35.314123602481004,32.774998637767666],[35.31558935473736,32.774995655819616],[35.31794527268784,32.77481151362133],[35.3182482466636,32.77464104321735],[35.31861854688997,32.77404107527144],[35.31873921890184,32.77346500740566],[35.317848665111434,32.771225096804955],[35.317726970891606,32.769810667413054],[35.3174241060156,32.76952746855544],[35.31691620752794,32.770236886167645],[35.3148938343283,32.76966441562212],[35.314581160555065,32.76939812717691],[35.31416028929554,32.76833900047677],[35.31358606181102,32.76827694588021],[35.312441947610324,32.76843291796521],[35.312259820412905,32.76855581772],[35.31246272440815,32.768807827326796],[35.31188733365934,32.768801529715134],[35.31076494244627,32.76947796985772],[35.31302606840612,32.77133483483465],[35.313297403814836,32.77178363249691],[35.31497539213909,32.77167220894801],[35.315156904174714,32.772280303664274],[35.31477856678715,32.772719178460434],[35.31341418040073,32.773066344628745],[35.31345543012944,32.77324408664266],[35.31157243225625,32.774078343038525],[35.31149714594285,32.774388354390275],[35.31072682434752,32.77484333910309],[35.31000345101586,32.77633175955863],[35.31002599360415,32.777323915485496],[35.3109575504488,32.77719249594085],[35.311501256039044,32.7763692332255],[35.31265091548434,32.77547500174877],[35.314123602481004,32.774998637767666]]]]}}]}